OBJECT_NAME,OBJECT_ID,EPOCH,MEAN_MOTION,ECCENTRICITY,INCLINATION,RA_OF_ASC_NODE,ARG_OF_PERICENTER,MEAN_ANOMALY,EPHEMERIS_TYPE,CLASSIFICATION_TYPE,NORAD_CAT_ID,ELEMENT_SET_NO,REV_AT_EPOCH,BSTAR,MEAN_MOTION_DOT,MEAN_MOTION_DDOT
LEMUR-2-ALISIA,2025-009DB,2026-06-08T22:41:15.749088,15.02653696,.0001044,97.6966,242.1714,189.8805,170.2399,0,U,62706,999,9892,.5988E-3,.7927E-4,0
LEMUR-2-ROUNDTRIPPER,2025-009DG,2026-06-08T18:37:14.259072,15.03652047,.0004446,97.7242,242.4675,158.6746,201.4665,0,U,62711,999,7636,.71826E-3,.978E-4,0
LEMUR-2-MYNAMEISJEFF,2025-009DH,2026-06-08T23:22:30.720288,15.03666805,.0002726,97.7291,243.0413,184.8460,175.2740,0,U,62712,999,7639,.54819E-3,.7449E-4,0
LEMUR-2-LEIA-PHILIP,2025-052AN,2026-06-08T04:21:26.790048,14.97291118,.0002054,97.6847,51.2835,249.4491,110.6511,0,U,63246,999,6732,.19544E-3,.2208E-4,0
LEMUR-2-LIA-MARTIN,2025-052AQ,2026-06-08T12:33:45.213408,14.97733641,.0002347,97.6909,52.0814,171.3588,188.7675,0,U,63248,999,6738,.48379869E-3,.5617E-4,0
LEMUR-2-DELOITTE-1,2025-052BB,2026-06-08T11:58:04.460736,14.97537849,.00024787,97.6920,52.3863,114.7528,245.3952,0,U,63259,999,6739,.3525442E-3,.4056E-4,0
LEMUR-2-EMERSONROSE,2025-052BD,2026-06-08T05:10:11.157024,14.99020138,.0002472,97.6905,52.6491,71.0664,289.0826,0,U,63261,999,6739,.26647E-3,.3172E-4,0
LEMUR-2-MARACHE-FRAN,2025-052BE,2026-06-08T12:43:37.351488,15.00011735,.00061652,97.6948,53.2569,51.1759,309.0014,0,U,63262,999,6746,.51222291E-3,.6317E-4,0
LEMUR-2-THEFALCONER,2025-052BG,2026-06-08T22:11:43.478592,14.97337150,.0003565,97.6879,52.4349,58.2643,301.8926,0,U,63264,999,6745,.37658E-3,.4314E-4,0
LEMUR-2-UNTITLED-SC,2025-061A,2026-06-08T21:22:01.163136,15.13414598,.0017128,97.5630,135.3128,296.2947,63.6524,0,U,63351,999,6633,.21128E-3,.3719E-4,0
LEMUR-2-ESPERANZA,2025-061B,2026-06-09T04:45:50.872608,15.13510847,.001667,97.5639,135.7106,294.6014,65.3479,0,U,63352,999,6638,.18194E-3,.3201E-4,0
LEMUR-2-KREMPEL-BRO2,2025-061C,2026-06-08T21:32:07.276416,15.13942866,.0017533,97.5684,135.9341,287.2298,72.7014,0,U,63353,999,6635,.20577E-3,.3675E-4,0
LEMUR-2-THERMORAPTOR,2025-061D,2026-06-08T11:35:53.651040,15.14018473,.00172625,97.5690,135.5966,287.6914,72.2433,0,U,63354,999,6629,.23530702E-3,.4221E-4,0
LEMUR-2-NEUROSPICY,2025-061E,2026-06-09T04:22:51.285792,15.14137864,.0015036,97.5616,135.9244,289.4164,70.5442,0,U,63355,999,6640,.16991E-3,.3037E-4,0
LEMUR-2-TILLINFINITY,2025-061F,2026-06-08T21:22:27.041664,15.14723038,.0016244,97.5602,135.9189,277.0766,82.8618,0,U,63356,999,6638,.22216E-3,.4061E-4,0
LEMUR-2-KREMPEL-BRO1,2025-061G,2026-06-09T04:38:24.679680,15.14530251,.0016843,97.5604,136.1383,277.2249,82.7067,0,U,63357,999,6642,.17597E-3,.3185E-4,0
LEMUR-2-LANGER2SPACE,2025-061H,2026-06-08T21:18:29.458944,15.14224922,.0014978,97.5608,135.6518,288.5876,71.3728,0,U,63358,999,6636,.22277E-3,.4013E-4,0
LEMUR-2-BALTO,2025-052BH,2026-06-09T04:22:00.913728,14.99998622,.0006704,97.6884,53.8855,77.9879,282.2096,0,U,63395,999,6756,.40427E-3,.4971E-4,0
LEMUR-2-KRISH,2025-135AK,2026-06-09T01:10:24.191904,14.96128043,.0001264,97.7723,274.9829,108.7787,251.3571,0,U,64561,999,5270,.37572E-3,.417E-4,0
LEMUR-2-HUBBLE-4,2025-135AP,2026-06-09T00:40:09.575040,14.93173923,.0001556,97.7690,274.0336,354.0746,6.0455,0,U,64565,999,5265,.11097E-3,.1102E-4,0
LEMUR-2-SEJONG-2,2025-135BL,2026-06-09T05:10:01.706592,14.96637935,.0004487,97.7685,275.2920,15.4044,344.7313,0,U,64586,999,5275,.33327E-3,.3742E-4,0
LEMUR-2-HUBBLE-5,2025-135BT,2026-06-09T01:17:50.252640,14.94109922,.0005716,97.7710,274.6798,21.0280,339.1173,0,U,64840,999,5269,.16155E-3,.167E-4,0
LEMUR-2-KARENDARRELL,2025-135BU,2026-06-09T01:07:20.807040,14.99992158,.0009158,97.7666,276.2701,233.8259,126.2118,0,U,64841,999,5279,.52585E-3,.6485E-4,0
LEMUR-2-LUCILLE-ROSE,2025-135BV,2026-06-08T19:41:44.507328,15.00048716,.0010666,97.7768,276.0535,315.4919,44.5446,0,U,65403,999,4738,.55836E-3,.6902E-4,0
LEMUR-2-AFFIE-WAUWIE,2025-248C,2026-06-07T07:23:30.971040,15.26866519,.0008835,45.3866,168.5000,20.2835,339.8404,0,U,66295,999,3308,.52119E-3,.13749E-3,0
LEMUR-2-DEANANDMAEVE,2025-276N,2026-06-08T18:06:55.222848,15.19629534,.0006469,97.4209,233.3710,41.6458,318.5268,0,U,66678,999,2913,.3524E-3,.7447E-4,0
LEMUR-2-STAS-GORBUK,2025-276W,2026-06-09T02:19:15.532320,15.19293405,.0005917,97.4245,233.7628,41.0209,319.1470,0,U,66686,999,2918,.2357E-3,.4908E-4,0
LEMUR-2-TEODOR,2025-276DG,2026-06-08T18:14:58.392384,15.20959604,.0001845,97.4147,233.6579,123.1960,236.9453,0,U,66768,999,2916,.28971E-3,.6349E-4,0
LEMUR-2-LAILA,2025-276DQ,2026-06-09T04:42:14.222016,15.21183398,.000169,97.4174,234.2023,145.8587,214.2757,0,U,66776,999,2923,.2237E-3,.4918E-4,0
LEMUR-2-CELIJO-SB-PK,2025-276DW,2026-06-09T02:20:57.263136,14.99874439,.0008854,97.5277,231.1402,151.8907,208.2797,0,U,66781,999,2141,.39212E-3,.4807E-4,0
