LEMUR-2-ALISIA          
1 62706U 25009DB  26159.94532117  .00007927  00000+0  59880-3 0  9999
2 62706  97.6966 242.1714 0001044 189.8805 170.2399 15.02653696 98927
LEMUR-2-ROUNDTRIPPER    
1 62711U 25009DG  26159.77585948  .00009780  00000+0  71826-3 0  9999
2 62711  97.7242 242.4675 0004446 158.6746 201.4665 15.03652047 76364
LEMUR-2-MYNAMEISJEFF    
1 62712U 25009DH  26159.97396667  .00007449  00000+0  54819-3 0  9993
2 62712  97.7291 243.0413 0002726 184.8460 175.2740 15.03666805 76391
LEMUR-2-LEIA-PHILIP     
1 63246U 25052AN  26159.18156007  .00002208  00000+0  19544-3 0  9993
2 63246  97.6847  51.2835 0002054 249.4491 110.6511 14.97291118 67328
LEMUR-2-LIA-MARTIN      
1 63248U 25052AQ  26159.52343997  .00005617  00000+0  48380-3 0  9996
2 63248  97.6909  52.0814 0002347 171.3588 188.7675 14.97733641 67385
LEMUR-2-DELOITTE-1      
1 63259U 25052BB  26159.49866274  .00004056  00000+0  35254-3 0  9994
2 63259  97.6920  52.3863 0002478 114.7528 245.3952 14.97537849 67398
LEMUR-2-EMERSONROSE     
1 63261U 25052BD  26159.21540691  .00003172  00000+0  26647-3 0  9993
2 63261  97.6905  52.6491 0002472  71.0664 289.0826 14.99020138 67399
LEMUR-2-MARACHE-FRAN    
1 63262U 25052BE  26159.53029342  .00006317  00000+0  51222-3 0  9995
2 63262  97.6948  53.2569 0006165  51.1759 309.0014 15.00011735 67463
LEMUR-2-THEFALCONER     
1 63264U 25052BG  26159.92480878  .00004314  00000+0  37658-3 0  9997
2 63264  97.6879  52.4349 0003565  58.2643 301.8926 14.97337150 67454
LEMUR-2-UNTITLED-SC     
1 63351U 25061A   26159.89029124  .00003719  00000+0  21128-3 0  9996
2 63351  97.5630 135.3128 0017128 296.2947  63.6524 15.13414598 66336
LEMUR-2-ESPERANZA       
1 63352U 25061B   26160.19850547  .00003201  00000+0  18194-3 0  9998
2 63352  97.5639 135.7106 0016670 294.6014  65.3479 15.13510847 66381
LEMUR-2-KREMPEL-BRO2    
1 63353U 25061C   26159.89730644  .00003675  00000+0  20577-3 0  9992
2 63353  97.5684 135.9341 0017533 287.2298  72.7014 15.13942866 66350
LEMUR-2-THERMORAPTOR    
1 63354U 25061D   26159.48325985  .00004221  00000+0  23531-3 0  9997
2 63354  97.5690 135.5966 0017262 287.6914  72.2433 15.14018473 66297
LEMUR-2-NEUROSPICY      
1 63355U 25061E   26160.18253803  .00003037  00000+0  16991-3 0  9992
2 63355  97.5616 135.9244 0015036 289.4164  70.5442 15.14137864 66403
LEMUR-2-TILLINFINITY    
1 63356U 25061F   26159.89059076  .00004061  00000+0  22216-3 0  9990
2 63356  97.5602 135.9189 0016244 277.0766  82.8618 15.14723038 66382
LEMUR-2-KREMPEL-BRO1    
1 63357U 25061G   26160.19334120  .00003185  00000+0  17597-3 0  9994
2 63357  97.5604 136.1383 0016843 277.2249  82.7067 15.14530251 66422
LEMUR-2-LANGER2SPACE    
1 63358U 25061H   26159.88784096  .00004013  00000+0  22277-3 0  9992
2 63358  97.5608 135.6518 0014978 288.5876  71.3728 15.14224922 66365
LEMUR-2-BALTO           
1 63395U 25052BH  26160.18195502  .00004971  00000+0  40427-3 0  9996
2 63395  97.6884  53.8855 0006704  77.9879 282.2096 14.99998622 67560
LEMUR-2-KRISH           
1 64561U 25135AK  26160.04889111  .00004170  00000+0  37572-3 0  9993
2 64561  97.7723 274.9829 0001264 108.7787 251.3571 14.96128043 52707
LEMUR-2-HUBBLE-4        
1 64565U 25135AP  26160.02788860  .00001102  00000+0  11097-3 0  9990
2 64565  97.7690 274.0336 0001556 354.0746   6.0455 14.93173923 52657
LEMUR-2-SEJONG-2        
1 64586U 25135BL  26160.21529753  .00003742  00000+0  33327-3 0  9990
2 64586  97.7685 275.2920 0004487  15.4044 344.7313 14.96637935 52758
LEMUR-2-HUBBLE-5        
1 64840U 25135BT  26160.05405385  .00001670  00000+0  16155-3 0  9997
2 64840  97.7710 274.6798 0005716  21.0280 339.1173 14.94109922 52690
LEMUR-2-KARENDARRELL    
1 64841U 25135BU  26160.04676860  .00006485  00000+0  52585-3 0  9991
2 64841  97.7666 276.2701 0009158 233.8259 126.2118 14.99992158 52797
LEMUR-2-LUCILLE-ROSE    
1 65403U 25135BV  26159.82065402  .00006902  00000+0  55836-3 0  9990
2 65403  97.7768 276.0535 0010666 315.4919  44.5446 15.00048716 47384
LEMUR-2-AFFIE-WAUWIE    
1 66295U 25248C   26158.30799735  .00013749  00000+0  52119-3 0  9998
2 66295  45.3866 168.5000 0008835  20.2835 339.8404 15.26866519 33080
LEMUR-2-DEANANDMAEVE    
1 66678U 25276N   26159.75480582  .00007447  00000+0  35240-3 0  9995
2 66678  97.4209 233.3710 0006469  41.6458 318.5268 15.19629534 29131
LEMUR-2-STAS-GORBUK     
1 66686U 25276W   26160.09670755  .00004908  00000+0  23570-3 0  9998
2 66686  97.4245 233.7628 0005917  41.0209 319.1470 15.19293405 29188
LEMUR-2-TEODOR          
1 66768U 25276DG  26159.76039806  .00006349  00000+0  28971-3 0  9998
2 66768  97.4147 233.6579 0001845 123.1960 236.9453 15.20959604 29163
LEMUR-2-LAILA           
1 66776U 25276DQ  26160.19599794  .00004918  00000+0  22370-3 0  9990
2 66776  97.4174 234.2023 0001690 145.8587 214.2757 15.21183398 29231
LEMUR-2-CELIJO-SB-PK    
1 66781U 25276DW  26160.09788499  .00004807  00000+0  39212-3 0  9997
2 66781  97.5277 231.1402 0008854 151.8907 208.2797 14.99874439 21417
